STARLINK-34206          
1 66098U 25236N   26139.30136679  .00009307  00000+0  29385-3 0  9991
2 66098  53.1596 136.0250 0001521  93.1321 266.9856 15.33560214 33744
STARLINK-34460          
1 66099U 25236P   26139.25972654  .00019411  00000+0  66568-3 0  9998
2 66099  53.1594 135.7618 0001480  81.5309 278.5859 15.30205042 33753
STARLINK-35609          
1 66100U 25236Q   26139.31038852  .00008172  00000+0  28767-3 0  9992
2 66100  53.1589 136.0803 0001241  83.3685 276.7457 15.30206094 33697
STARLINK-35595          
1 66101U 25236R   26139.30722452  .00007070  00000+0  25058-3 0  9994
2 66101  53.1584 136.0598 0001318  83.5794 276.5357 15.30202425 33693
STARLINK-35599          
1 66102U 25236S   26139.25001157 -.00018428  00000+0 -55017-3 0  9990
2 66102  53.1588 136.2328 0000765  80.2437  12.6165 15.33560655  5874
STARLINK-35622          
1 66103U 25236T   26139.29772931  .00007308  00000+0  25862-3 0  9998
2 66103  53.1577 135.9990 0001264  80.3440 279.7704 15.30200451 33759
STARLINK-35452          
1 66104U 25236U   26139.30089368  .00008468  00000+0  29768-3 0  9993
2 66104  53.1590 136.0175 0001261  89.5022 270.6124 15.30203392 33759
STARLINK-35561          
1 66105U 25236V   26139.22925010  .00005807  00000+0  20807-3 0  9997
2 66105  53.1573 136.2794 0001384  75.1962 284.9192 15.30196899 33688
STARLINK-35584          
1 66106U 25236W   26139.29139561  .00008162  00000+0  28736-3 0  9999
2 66106  53.1574 135.9589 0001317  91.0408 269.0743 15.30202243 33751
STARLINK-35593          
1 66107U 25236X   26139.28822984  .00008750  00000+0  30719-3 0  9994
2 66107  53.1579 135.9389 0001237  85.4920 274.6222 15.30202956 33757
STARLINK-35590          
1 66108U 25236Y   26139.28400914  .00011297  00000+0  39290-3 0  9993
2 66108  53.1572 135.9097 0001478  88.5376 271.5794 15.30204840 33690
STARLINK-35545          
1 66109U 25236Z   26139.28612319  .00009134  00000+0  32025-3 0  9994
2 66109  53.1570 135.9261 0001413 106.8908 253.2247 15.30188307 33752
STARLINK-35427          
1 66110U 25236AA  26139.25562475  .00011172  00000+0  38866-3 0  9994
2 66110  53.1594 136.4445 0001403  89.8613 270.2549 15.30207203 33742
STARLINK-35574          
1 66111U 25236AB  26139.25351407  .00009598  00000+0  33569-3 0  9990
2 66111  53.1595 136.4322 0001481  89.9818 270.1352 15.30207216 33680
STARLINK-35531          
1 66112U 25236AC  26139.28084195  .00008517  00000+0  29931-3 0  9999
2 66112  53.1570 135.8904 0001283  83.4161 276.6986 15.30202812 33752
STARLINK-35491          
1 66113U 25236AD  26139.25140352  .00009937  00000+0  34710-3 0  9993
2 66113  53.1591 136.4194 0001407  88.6275 271.4887 15.30208782 33749
STARLINK-35496          
1 66114U 25237A   26139.11791016  .00013658  00000+0  47244-3 0  9990
2 66114  53.1589  72.4752 0001193  87.9399 272.1738 15.30198199 33391
STARLINK-35428          
1 66115U 25237B   26139.19905282  .00009154  00000+0  32077-3 0  9995
2 66115  53.1592  72.2722 0001117  91.4187 268.6942 15.30205289 33398
STARLINK-35573          
1 66116U 25237C   26139.23481942  .00006512  00000+0  23180-3 0  9993
2 66116  53.1583  71.7835 0001280  92.9711 267.1437 15.30202044 33410
STARLINK-35572          
1 66117U 25237D   26139.12740914  .00011890  00000+0  41282-3 0  9997
2 66117  53.1597  72.5345 0001271  92.7345 267.3802 15.30207851 33398
STARLINK-35468          
1 66118U 25237E   26139.07475700  .00012348  00000+0  42825-3 0  9993
2 66118  53.1627  72.9178 0001547 101.5474 258.5701 15.30207337 33387
STARLINK-35547          
1 66119U 25237F   26139.25001157  .00049679  00000+0  16798-2 0  9991
2 66119  53.1582  71.7824 0001339  83.1068 325.8389 15.30171115  5873
STARLINK-35553          
1 66120U 25237G   26139.18745427  .00027832  00000+0  94744-3 0  9995
2 66120  53.1587  72.1979 0001692 159.1618 200.9452 15.30229281 33405
STARLINK-35631          
1 66121U 25237H   26139.20327417  .00008491  00000+0  29845-3 0  9994
2 66121  53.1616  72.2949 0001386  89.8334 270.2826 15.30202538 33402
STARLINK-35653          
1 66122U 25237J   26139.19061820  .00013801  00000+0  47681-3 0  9995
2 66122  53.1591  72.2168 0001461  72.9814 287.1347 15.30228589 33407
STARLINK-35628          
1 66123U 25237K   26139.23270801  .00008808  00000+0  30908-3 0  9997
2 66123  53.1593  71.7679 0001594 101.2453 258.8727 15.30207867 33417
STARLINK-35645          
1 66124U 25237L   26139.24537308  .00011716  00000+0  40691-3 0  9999
2 66124  53.1589  71.8460 0001467  81.0150 279.1017 15.30213279 33412
STARLINK-35649          
1 66125U 25237M   26139.22004408  .00005563  00000+0  19982-3 0  9990
2 66125  53.1599  71.6865 0001273  83.4312 276.6834 15.30201017 33418
STARLINK-35658          
1 66126U 25237N   26139.09574693  .00009381  00000+0  32835-3 0  9998
2 66126  53.1618  72.3358 0001863  95.9161 264.2052 15.30210032 33389
STARLINK-35629          
1 66127U 25237P   26139.08002994  .00007028  00000+0  24914-3 0  9993
2 66127  53.1618  72.9420 0001589  97.4009 262.7172 15.30205310 33388
