OBJECT_NAME,OBJECT_ID,EPOCH,MEAN_MOTION,ECCENTRICITY,INCLINATION,RA_OF_ASC_NODE,ARG_OF_PERICENTER,MEAN_ANOMALY,EPHEMERIS_TYPE,CLASSIFICATION_TYPE,NORAD_CAT_ID,ELEMENT_SET_NO,REV_AT_EPOCH,BSTAR,MEAN_MOTION_DOT,MEAN_MOTION_DDOT
STARLINK-34206,2025-236N,2026-05-19T07:13:58.090656,15.33560214,.00015214,53.1596,136.0250,93.1321,266.9856,0,U,66098,999,3374,.29384709E-3,.9307E-4,0
STARLINK-34460,2025-236P,2026-05-19T06:14:00.373056,15.30205042,.000148,53.1594,135.7618,81.5309,278.5859,0,U,66099,999,3375,.66568016E-3,.19411E-3,0
STARLINK-35609,2025-236Q,2026-05-19T07:26:57.568128,15.30206094,.00012417,53.1589,136.0803,83.3685,276.7457,0,U,66100,999,3369,.28766694E-3,.8172E-4,0
STARLINK-35595,2025-236R,2026-05-19T07:22:24.198528,15.30202425,.00013185,53.1584,136.0598,83.5794,276.5357,0,U,66101,999,3369,.2505806E-3,.707E-4,0
STARLINK-35599,2025-236S,2026-05-19T06:00:00.999648,15.33560655,.00007656,53.1588,136.2328,80.2437,12.6165,0,U,66102,999,587,-.55017038E-3,-.18428E-3,0
STARLINK-35622,2025-236T,2026-05-19T07:08:43.812384,15.30200451,.00012647,53.1577,135.9990,80.3440,279.7704,0,U,66103,999,3375,.25862038E-3,.7308E-4,0
STARLINK-35452,2025-236U,2026-05-19T07:13:17.213952,15.30203392,.00012614,53.1590,136.0175,89.5022,270.6124,0,U,66104,999,3375,.29768238E-3,.8468E-4,0
STARLINK-35561,2025-236V,2026-05-19T05:30:07.208640,15.30196899,.00013841,53.1573,136.2794,75.1962,284.9192,0,U,66105,999,3368,.20806994E-3,.5807E-4,0
STARLINK-35584,2025-236W,2026-05-19T06:59:36.580704,15.30202243,.00013174,53.1574,135.9589,91.0408,269.0743,0,U,66106,999,3375,.28735852E-3,.8162E-4,0
STARLINK-35593,2025-236X,2026-05-19T06:55:03.058176,15.30202956,.00012372,53.1579,135.9389,85.4920,274.6222,0,U,66107,999,3375,.3071871E-3,.875E-4,0
STARLINK-35590,2025-236Y,2026-05-19T06:48:58.389696,15.30204840,.00014785,53.1572,135.9097,88.5376,271.5794,0,U,66108,999,3369,.39290353E-3,.11297E-3,0
STARLINK-35545,2025-236Z,2026-05-19T06:52:01.043616,15.30188307,.00014139,53.1570,135.9261,106.8908,253.2247,0,U,66109,999,3375,.3202497E-3,.9134E-4,0
STARLINK-35427,2025-236AA,2026-05-19T06:08:05.978400,15.30207203,.00014031,53.1594,136.4445,89.8613,270.2549,0,U,66110,999,3374,.38866195E-3,.11172E-3,0
STARLINK-35574,2025-236AB,2026-05-19T06:05:03.615648,15.30207216,.00014816,53.1595,136.4322,89.9818,270.1352,0,U,66111,999,3368,.3356945E-3,.9598E-4,0
STARLINK-35531,2025-236AC,2026-05-19T06:44:24.744480,15.30202812,.00012836,53.1570,135.8904,83.4161,276.6986,0,U,66112,999,3375,.29931413E-3,.8517E-4,0
STARLINK-35491,2025-236AD,2026-05-19T06:02:01.264128,15.30208782,.00014074,53.1591,136.4194,88.6275,271.4887,0,U,66113,999,3374,.34709919E-3,.9937E-4,0
STARLINK-35496,2025-237A,2026-05-19T02:49:47.437824,15.30198199,.00011938,53.1589,72.4752,87.9399,272.1738,0,U,66114,999,3339,.47243959E-3,.13658E-3,0
STARLINK-35428,2025-237B,2026-05-19T04:46:38.163648,15.30205289,.0001117,53.1592,72.2722,91.4187,268.6942,0,U,66115,999,3339,.3207702E-3,.9154E-4,0
STARLINK-35573,2025-237C,2026-05-19T05:38:08.397888,15.30202044,.00012805,53.1583,71.7835,92.9711,267.1437,0,U,66116,999,3341,.23179681E-3,.6512E-4,0
STARLINK-35572,2025-237D,2026-05-19T03:03:28.149696,15.30207851,.00012715,53.1597,72.5345,92.7345,267.3802,0,U,66117,999,3339,.41282311E-3,.1189E-3,0
STARLINK-35468,2025-237E,2026-05-19T01:47:39.004800,15.30207337,.00015475,53.1627,72.9178,101.5474,258.5701,0,U,66118,999,3338,.42824917E-3,.12348E-3,0
STARLINK-35547,2025-237F,2026-05-19T06:00:00.999648,15.30171115,.00013397,53.1582,71.7824,83.1068,325.8389,0,U,66119,999,587,.1679765E-2,.49679E-3,0
STARLINK-35553,2025-237G,2026-05-19T04:29:56.048928,15.30229281,.00016928,53.1587,72.1979,159.1618,200.9452,0,U,66120,999,3340,.94744105E-3,.27832E-3,0
STARLINK-35631,2025-237H,2026-05-19T04:52:42.888288,15.30202538,.00013865,53.1616,72.2949,89.8334,270.2826,0,U,66121,999,3340,.29845372E-3,.8491E-4,0
STARLINK-35653,2025-237J,2026-05-19T04:34:29.412480,15.30228589,.00014619,53.1591,72.2168,72.9814,287.1347,0,U,66122,999,3340,.47681129E-3,.13801E-3,0
STARLINK-35628,2025-237K,2026-05-19T05:35:05.972064,15.30207867,.00015942,53.1593,71.7679,101.2453,258.8727,0,U,66123,999,3341,.30908117E-3,.8808E-4,0
STARLINK-35645,2025-237L,2026-05-19T05:53:20.234112,15.30213279,.00014678,53.1589,71.8460,81.0150,279.1017,0,U,66124,999,3341,.40691059E-3,.11716E-3,0
STARLINK-35649,2025-237M,2026-05-19T05:16:51.808512,15.30201017,.00012731,53.1599,71.6865,83.4312,276.6834,0,U,66125,999,3341,.19981758E-3,.5563E-4,0
STARLINK-35658,2025-237N,2026-05-19T02:17:52.534752,15.30210032,.00018632,53.1618,72.3358,95.9161,264.2052,0,U,66126,999,3338,.32835199E-3,.9381E-4,0
STARLINK-35629,2025-237P,2026-05-19T01:55:14.586816,15.30205310,.00015897,53.1618,72.9420,97.4009,262.7172,0,U,66127,999,3338,.24914226E-3,.7028E-4,0
